CCSDS_OMM_VERS = 2.0
CREATION_DATE  = 
ORIGINATOR     = 

OBJECT_NAME    = STARLINK-34616
OBJECT_ID      = 2025-253B
CENTER_NAME    = EARTH
REF_FRAME      = TEME
TIME_SYSTEM    = UTC
MEAN_ELEMENT_THEORY = SGP/SGP4

EPOCH          = 2025-11-29T20:00:01.999008
MEAN_MOTION    = 15.50601136
ECCENTRICITY   = .0001633
INCLINATION    = 42.9997
RA_OF_ASC_NODE = 60.2187
ARG_OF_PERICENTER = 278.1638
MEAN_ANOMALY   = 282.9278

EPHEMERIS_TYPE = 0
CLASSIFICATION_TYPE = U
NORAD_CAT_ID   = 66320
ELEMENT_SET_NO = 999
REV_AT_EPOCH   = 505
BSTAR          = -.12654E-2
MEAN_MOTION_DOT = -.73938E-3
MEAN_MOTION_DDOT = 0

CCSDS_OMM_VERS = 2.0
CREATION_DATE  = 
ORIGINATOR     = 

OBJECT_NAME    = STARLINK-34615
OBJECT_ID      = 2025-253C
CENTER_NAME    = EARTH
REF_FRAME      = TEME
TIME_SYSTEM    = UTC
MEAN_ELEMENT_THEORY = SGP/SGP4

EPOCH          = 2025-11-29T20:00:01.999008
MEAN_MOTION    = 15.62936759
ECCENTRICITY   = .0002495
INCLINATION    = 42.9997
RA_OF_ASC_NODE = 59.8036
ARG_OF_PERICENTER = 350.7883
MEAN_ANOMALY   = 19.8135

EPHEMERIS_TYPE = 0
CLASSIFICATION_TYPE = U
NORAD_CAT_ID   = 66321
ELEMENT_SET_NO = 999
REV_AT_EPOCH   = 490
BSTAR          = .50135E-3
MEAN_MOTION_DOT = .46542E-3
MEAN_MOTION_DDOT = 0

CCSDS_OMM_VERS = 2.0
CREATION_DATE  = 
ORIGINATOR     = 

OBJECT_NAME    = STARLINK-35292
OBJECT_ID      = 2025-253D
CENTER_NAME    = EARTH
REF_FRAME      = TEME
TIME_SYSTEM    = UTC
MEAN_ELEMENT_THEORY = SGP/SGP4

EPOCH          = 2025-11-29T06:00:02.000160
MEAN_MOTION    = 15.50402507
ECCENTRICITY   = .00008593
INCLINATION    = 42.9997
RA_OF_ASC_NODE = 63.6060
ARG_OF_PERICENTER = 265.9799
MEAN_ANOMALY   = 284.5583

EPHEMERIS_TYPE = 0
CLASSIFICATION_TYPE = U
NORAD_CAT_ID   = 66322
ELEMENT_SET_NO = 999
REV_AT_EPOCH   = 476
BSTAR          = -.39946051E-1
MEAN_MOTION_DOT = -.2071066E-1
MEAN_MOTION_DDOT = 0

CCSDS_OMM_VERS = 2.0
CREATION_DATE  = 
ORIGINATOR     = 

OBJECT_NAME    = STARLINK-35309
OBJECT_ID      = 2025-253E
CENTER_NAME    = EARTH
REF_FRAME      = TEME
TIME_SYSTEM    = UTC
MEAN_ELEMENT_THEORY = SGP/SGP4

EPOCH          = 2025-11-29T20:00:01.999008
MEAN_MOTION    = 15.50594030
ECCENTRICITY   = .0000986
INCLINATION    = 42.9998
RA_OF_ASC_NODE = 60.1814
ARG_OF_PERICENTER = 282.4076
MEAN_ANOMALY   = 294.0192

EPHEMERIS_TYPE = 0
CLASSIFICATION_TYPE = U
NORAD_CAT_ID   = 66323
ELEMENT_SET_NO = 999
REV_AT_EPOCH   = 485
BSTAR          = -.98888E-3
MEAN_MOTION_DOT = -.57956E-3
MEAN_MOTION_DDOT = 0

CCSDS_OMM_VERS = 2.0
CREATION_DATE  = 
ORIGINATOR     = 

OBJECT_NAME    = STARLINK-35506
OBJECT_ID      = 2025-253F
CENTER_NAME    = EARTH
REF_FRAME      = TEME
TIME_SYSTEM    = UTC
MEAN_ELEMENT_THEORY = SGP/SGP4

EPOCH          = 2025-11-29T20:00:01.999008
MEAN_MOTION    = 15.50590769
ECCENTRICITY   = .0001569
INCLINATION    = 42.9999
RA_OF_ASC_NODE = 60.1998
ARG_OF_PERICENTER = 272.5146
MEAN_ANOMALY   = 296.2473

EPHEMERIS_TYPE = 0
CLASSIFICATION_TYPE = U
NORAD_CAT_ID   = 66324
ELEMENT_SET_NO = 999
REV_AT_EPOCH   = 495
BSTAR          = -.9612E-3
MEAN_MOTION_DOT = -.5635E-3
MEAN_MOTION_DDOT = 0

CCSDS_OMM_VERS = 2.0
CREATION_DATE  = 
ORIGINATOR     = 

OBJECT_NAME    = STARLINK-35504
OBJECT_ID      = 2025-253G
CENTER_NAME    = EARTH
REF_FRAME      = TEME
TIME_SYSTEM    = UTC
MEAN_ELEMENT_THEORY = SGP/SGP4

EPOCH          = 2025-11-29T20:00:01.999008
MEAN_MOTION    = 15.50602460
ECCENTRICITY   = .0001297
INCLINATION    = 42.9999
RA_OF_ASC_NODE = 60.1906
ARG_OF_PERICENTER = 278.0197
MEAN_ANOMALY   = 294.5734

EPHEMERIS_TYPE = 0
CLASSIFICATION_TYPE = U
NORAD_CAT_ID   = 66325
ELEMENT_SET_NO = 999
REV_AT_EPOCH   = 485
BSTAR          = -.12737E-2
MEAN_MOTION_DOT = -.74419E-3
MEAN_MOTION_DDOT = 0

CCSDS_OMM_VERS = 2.0
CREATION_DATE  = 
ORIGINATOR     = 

OBJECT_NAME    = STARLINK-35479
OBJECT_ID      = 2025-253H
CENTER_NAME    = EARTH
REF_FRAME      = TEME
TIME_SYSTEM    = UTC
MEAN_ELEMENT_THEORY = SGP/SGP4

EPOCH          = 2025-11-29T20:00:01.999008
MEAN_MOTION    = 15.50525345
ECCENTRICITY   = .0001181
INCLINATION    = 42.9997
RA_OF_ASC_NODE = 60.1750
ARG_OF_PERICENTER = 272.5706
MEAN_ANOMALY   = 305.7949

EPHEMERIS_TYPE = 0
CLASSIFICATION_TYPE = U
NORAD_CAT_ID   = 66326
ELEMENT_SET_NO = 999
REV_AT_EPOCH   = 495
BSTAR          = .99304E-3
MEAN_MOTION_DOT = .58238E-3
MEAN_MOTION_DDOT = 0

CCSDS_OMM_VERS = 2.0
CREATION_DATE  = 
ORIGINATOR     = 

OBJECT_NAME    = STARLINK-35507
OBJECT_ID      = 2025-253J
CENTER_NAME    = EARTH
REF_FRAME      = TEME
TIME_SYSTEM    = UTC
MEAN_ELEMENT_THEORY = SGP/SGP4

EPOCH          = 2025-11-29T20:00:01.999008
MEAN_MOTION    = 15.50591870
ECCENTRICITY   = .0001579
INCLINATION    = 43.0000
RA_OF_ASC_NODE = 60.2050
ARG_OF_PERICENTER = 272.3560
MEAN_ANOMALY   = 294.4848

EPHEMERIS_TYPE = 0
CLASSIFICATION_TYPE = U
NORAD_CAT_ID   = 66327
ELEMENT_SET_NO = 999
REV_AT_EPOCH   = 495
BSTAR          = -.92816E-3
MEAN_MOTION_DOT = -.54441E-3
MEAN_MOTION_DDOT = 0

CCSDS_OMM_VERS = 2.0
CREATION_DATE  = 
ORIGINATOR     = 

OBJECT_NAME    = STARLINK-35460
OBJECT_ID      = 2025-253K
CENTER_NAME    = EARTH
REF_FRAME      = TEME
TIME_SYSTEM    = UTC
MEAN_ELEMENT_THEORY = SGP/SGP4

EPOCH          = 2025-11-29T20:00:01.999008
MEAN_MOTION    = 15.50511702
ECCENTRICITY   = .00012
INCLINATION    = 42.9996
RA_OF_ASC_NODE = 60.1610
ARG_OF_PERICENTER = 271.0357
MEAN_ANOMALY   = 313.0938

EPHEMERIS_TYPE = 0
CLASSIFICATION_TYPE = U
NORAD_CAT_ID   = 66328
ELEMENT_SET_NO = 999
REV_AT_EPOCH   = 495
BSTAR          = .12483E-2
MEAN_MOTION_DOT = .73401E-3
MEAN_MOTION_DDOT = 0

CCSDS_OMM_VERS = 2.0
CREATION_DATE  = 
ORIGINATOR     = 

OBJECT_NAME    = STARLINK-35505
OBJECT_ID      = 2025-253L
CENTER_NAME    = EARTH
REF_FRAME      = TEME
TIME_SYSTEM    = UTC
MEAN_ELEMENT_THEORY = SGP/SGP4

EPOCH          = 2025-11-29T20:00:01.999008
MEAN_MOTION    = 15.50493994
ECCENTRICITY   = .0001201
INCLINATION    = 43.0000
RA_OF_ASC_NODE = 60.2115
ARG_OF_PERICENTER = 273.7743
MEAN_ANOMALY   = 291.2068

EPHEMERIS_TYPE = 0
CLASSIFICATION_TYPE = U
NORAD_CAT_ID   = 66329
ELEMENT_SET_NO = 999
REV_AT_EPOCH   = 485
BSTAR          = .14296E-2
MEAN_MOTION_DOT = .8418E-3
MEAN_MOTION_DDOT = 0

CCSDS_OMM_VERS = 2.0
CREATION_DATE  = 
ORIGINATOR     = 

OBJECT_NAME    = STARLINK-35512
OBJECT_ID      = 2025-253M
CENTER_NAME    = EARTH
REF_FRAME      = TEME
TIME_SYSTEM    = UTC
MEAN_ELEMENT_THEORY = SGP/SGP4

EPOCH          = 2025-11-29T20:00:01.999008
MEAN_MOTION    = 15.50542812
ECCENTRICITY   = .0000649
INCLINATION    = 43.0001
RA_OF_ASC_NODE = 60.1858
ARG_OF_PERICENTER = 301.4272
MEAN_ANOMALY   = 273.0114

EPHEMERIS_TYPE = 0
CLASSIFICATION_TYPE = U
NORAD_CAT_ID   = 66330
ELEMENT_SET_NO = 999
REV_AT_EPOCH   = 485
BSTAR          = -.42995E-1
MEAN_MOTION_DOT = -.2220076E-1
MEAN_MOTION_DDOT = 0

CCSDS_OMM_VERS = 2.0
CREATION_DATE  = 
ORIGINATOR     = 

OBJECT_NAME    = STARLINK-35257
OBJECT_ID      = 2025-253N
CENTER_NAME    = EARTH
REF_FRAME      = TEME
TIME_SYSTEM    = UTC
MEAN_ELEMENT_THEORY = SGP/SGP4

EPOCH          = 2025-11-29T20:00:01.999008
MEAN_MOTION    = 15.50590855
ECCENTRICITY   = .0001613
INCLINATION    = 43.0000
RA_OF_ASC_NODE = 60.1464
ARG_OF_PERICENTER = 275.2077
MEAN_ANOMALY   = 314.6390

EPHEMERIS_TYPE = 0
CLASSIFICATION_TYPE = U
NORAD_CAT_ID   = 66331
ELEMENT_SET_NO = 999
REV_AT_EPOCH   = 458
BSTAR          = -.92837E-3
MEAN_MOTION_DOT = -.54451E-3
MEAN_MOTION_DDOT = 0

