STARLINK-34616          
1 66320U 25253B   25333.83335647 -.00073938  00000+0 -12654-2 0  9990
2 66320  42.9997  60.2187 0001633 278.1638 282.9278 15.50601136  5057
STARLINK-34615          
1 66321U 25253C   25333.83335647  .00046542  00000+0  50135-3 0  9997
2 66321  42.9997  59.8036 0002495 350.7883  19.8135 15.62936759  4908
STARLINK-35292          
1 66322U 25253D   25333.25002315 -.02071066  00000+0 -39946-1 0  9995
2 66322  42.9997  63.6060 0000859 265.9799 284.5583 15.50402507  4762
STARLINK-35309          
1 66323U 25253E   25333.83335647 -.00057956  00000+0 -98888-3 0  9999
2 66323  42.9998  60.1814 0000986 282.4076 294.0192 15.50594030  4851
STARLINK-35506          
1 66324U 25253F   25333.83335647 -.00056350  00000+0 -96120-3 0  9994
2 66324  42.9999  60.1998 0001569 272.5146 296.2473 15.50590769  4954
STARLINK-35504          
1 66325U 25253G   25333.83335647 -.00074419  00000+0 -12737-2 0  9992
2 66325  42.9999  60.1906 0001297 278.0197 294.5734 15.50602460  4851
STARLINK-35479          
1 66326U 25253H   25333.83335647  .00058238  00000+0  99304-3 0  9998
2 66326  42.9997  60.1750 0001181 272.5706 305.7949 15.50525345  4954
STARLINK-35507          
1 66327U 25253J   25333.83335647 -.00054441  00000+0 -92816-3 0  9994
2 66327  43.0000  60.2050 0001579 272.3560 294.4848 15.50591870  4951
STARLINK-35460          
1 66328U 25253K   25333.83335647  .00073401  00000+0  12483-2 0  9991
2 66328  42.9996  60.1610 0001200 271.0357 313.0938 15.50511702  4950
STARLINK-35505          
1 66329U 25253L   25333.83335647  .00084180  00000+0  14296-2 0  9992
2 66329  43.0000  60.2115 0001201 273.7743 291.2068 15.50493994  4851
STARLINK-35512          
1 66330U 25253M   25333.83335647 -.02220076  00000+0 -42995-1 0  9990
2 66330  43.0001  60.1858 0000649 301.4272 273.0114 15.50542812  4852
STARLINK-35257          
1 66331U 25253N   25333.83335647 -.00054451  00000+0 -92837-3 0  9993
2 66331  43.0000  60.1464 0001613 275.2077 314.6390 15.50590855  4586
